{"type": "FeatureCollection", "features": [{"type": "Feature", "properties": {"norad_id": 22675, "name": "COSMOS 2251", "group": "cosmos-2251-debris", "lat": -67.08653765412697, "lon": -109.03024088372935, "alt_km": 786.6108073069836, "timestamp": "2025-12-24T22:42:22.426358+00:00", "meta": {"OBJECT_NAME": "COSMOS 2251", "OBJECT_ID": "1993-036A", "EPOCH": "2025-12-24T06:17:40.442496", "MEAN_MOTION": 14.33208234, "ECCENTRICITY": 0.00244238, "INCLINATION": 74.04, "RA_OF_ASC_NODE": 294.8303, "ARG_OF_PERICENTER": 13.9405, "MEAN_ANOMALY": 346.2415, "EPHEMERIS_TYPE": 0, "CLASSIFICATION_TYPE": "U", "NORAD_CAT_ID": 22675, "ELEMENT_SET_NO": 999, "REV_AT_EPOCH": 69938, "BSTAR": 6.0142344e-05, "MEAN_MOTION_DOT": 1.4e-06, "MEAN_MOTION_DDOT": 0}, "tle": {"line1": "1 22675U 93036A   25358.26227364  .00000140  00000+0  60142-4 0  9999", "line2": "2 22675  74.0400 294.8303 0024423  13.9405 346.2415 14.33208234699385"}}, "geometry": {"type": "Point", "coordinates": [-109.03024088372935, -67.08653765412697]}}, {"type": "Feature", "properties": {"norad_id": 33757, "name": "COSMOS 2251 DEB", "group": "cosmos-2251-debris", "lat": -57.84520602146912, "lon": -85.75785195538522, "alt_km": 779.0081519304449, "timestamp": "2025-12-24T22:42:22.426384+00:00", "meta": {"OBJECT_NAME": "COSMOS 2251 DEB", "OBJECT_ID": "1993-036E", "EPOCH": "2025-12-24T06:59:25.465344", "MEAN_MOTION": 14.32583855, "ECCENTRICITY": 0.00156198, "INCLINATION": 74.0376, "RA_OF_ASC_NODE": 302.5216, "ARG_OF_PERICENTER": 314.0096, "MEAN_ANOMALY": 208.5968, "EPHEMERIS_TYPE": 0, "CLASSIFICATION_TYPE": "U", "NORAD_CAT_ID": 33757, "ELEMENT_SET_NO": 999, "REV_AT_EPOCH": 88161, "BSTAR": 5.0051571e-05, "MEAN_MOTION_DOT": 1.1e-06, "MEAN_MOTION_DDOT": 0}, "tle": {"line1": "1 33757U 93036E   25358.29126696  .00000110  00000+0  50052-4 0  9997", "line2": "2 33757  74.0376 302.5216 0015619 314.0096 208.5968 14.32583855881614"}}, "geometry": {"type": "Point", "coordinates": [-85.75785195538522, -57.84520602146912]}}, {"type": "Feature", "properties": {"norad_id": 33758, "name": "COSMOS 2251 DEB", "group": "cosmos-2251-debris", "lat": 0.10012439279268277, "lon": -167.9334122288674, "alt_km": 725.4605152699341, "timestamp": "2025-12-24T22:42:22.426400+00:00", "meta": {"OBJECT_NAME": "COSMOS 2251 DEB", "OBJECT_ID": "1993-036F", "EPOCH": "2025-12-23T22:27:50.406048", "MEAN_MOTION": 14.51656106, "ECCENTRICITY": 0.0017178, "INCLINATION": 74.0261, "RA_OF_ASC_NODE": 193.9401, "ARG_OF_PERICENTER": 259.8682, "MEAN_ANOMALY": 223.5939, "EPHEMERIS_TYPE": 0, "CLASSIFICATION_TYPE": "U", "NORAD_CAT_ID": 33758, "ELEMENT_SET_NO": 999, "REV_AT_EPOCH": 88467, "BSTAR": 0.00077284, "MEAN_MOTION_DOT": 3.078e-05, "MEAN_MOTION_DDOT": 0}, "tle": {"line1": "1 33758U 93036F   25357.93600007  .00003078  00000+0  77284-3 0  9992", "line2": "2 33758  74.0261 193.9401 0017178 259.8682 223.5939 14.51656106884670"}}, "geometry": {"type": "Point", "coordinates": [-167.9334122288674, 0.10012439279268277]}}, {"type": "Feature", "properties": {"norad_id": 33760, "name": "COSMOS 2251 DEB", "group": "cosmos-2251-debris", "lat": -36.965687315539476, "lon": -113.38939332084419, "alt_km": 766.5778247187527, "timestamp": "2025-12-24T22:42:22.426413+00:00", "meta": {"OBJECT_NAME": "COSMOS 2251 DEB", "OBJECT_ID": "1993-036H", "EPOCH": "2025-12-24T05:03:00.388224", "MEAN_MOTION": 14.35679993, "ECCENTRICITY": 0.00203946, "INCLINATION": 74.0319, "RA_OF_ASC_NODE": 260.4048, "ARG_OF_PERICENTER": 356.0116, "MEAN_ANOMALY": 124.739, "EPHEMERIS_TYPE": 0, "CLASSIFICATION_TYPE": "U", "NORAD_CAT_ID": 33760, "ELEMENT_SET_NO": 999, "REV_AT_EPOCH": 88289, "BSTAR": 0.00010680359, "MEAN_MOTION_DOT": 2.83e-06, "MEAN_MOTION_DDOT": 0}, "tle": {"line1": "1 33760U 93036H   25358.21042116  .00000283  00000+0  10680-3 0  9990", "line2": "2 33760  74.0319 260.4048 0020394 356.0116 124.7390 14.35679993882896"}}, "geometry": {"type": "Point", "coordinates": [-113.38939332084419, -36.965687315539476]}}, {"type": "Feature", "properties": {"norad_id": 33761, "name": "COSMOS 2251 DEB", "group": "cosmos-2251-debris", "lat": -11.954519438854105, "lon": 52.99111672020077, "alt_km": 761.1940955564496, "timestamp": "2025-12-24T22:42:22.426424+00:00", "meta": {"OBJECT_NAME": "COSMOS 2251 DEB", "OBJECT_ID": "1993-036J", "EPOCH": "2025-12-24T02:25:31.431072", "MEAN_MOTION": 14.42574902, "ECCENTRICITY": 0.00233185, "INCLINATION": 74.0349, "RA_OF_ASC_NODE": 231.0836, "ARG_OF_PERICENTER": 309.7367, "MEAN_ANOMALY": 176.1109, "EPHEMERIS_TYPE": 0, "CLASSIFICATION_TYPE": "U", "NORAD_CAT_ID": 33761, "ELEMENT_SET_NO": 999, "REV_AT_EPOCH": 88398, "BSTAR": 0.00035684609, "MEAN_MOTION_DOT": 1.162e-05, "MEAN_MOTION_DDOT": 0}, "tle": {"line1": "1 33761U 93036J   25358.10105823  .00001162  00000+0  35685-3 0  9993", "line2": "2 33761  74.0349 231.0836 0023318 309.7367 176.1109 14.42574902883983"}}, "geometry": {"type": "Point", "coordinates": [52.99111672020077, -11.954519438854105]}}, {"type": "Feature", "properties": {"norad_id": 33762, "name": "COSMOS 2251 DEB", "group": "cosmos-2251-debris", "lat": 8.419330357247444, "lon": 105.28384445681723, "alt_km": 791.9830273613761, "timestamp": "2025-12-24T22:42:22.426436+00:00", "meta": {"OBJECT_NAME": "COSMOS 2251 DEB", "OBJECT_ID": "1993-036K", "EPOCH": "2025-12-24T05:51:46.314720", "MEAN_MOTION": 14.33667231, "ECCENTRICITY": 0.00154746, "INCLINATION": 74.0422, "RA_OF_ASC_NODE": 288.9936, "ARG_OF_PERICENTER": 347.7117, "MEAN_ANOMALY": 162.7185, "EPHEMERIS_TYPE": 0, "CLASSIFICATION_TYPE": "U", "NORAD_CAT_ID": 33762, "ELEMENT_SET_NO": 999, "REV_AT_EPOCH": 88212, "BSTAR": 6.0369141e-05, "MEAN_MOTION_DOT": 1.42e-06, "MEAN_MOTION_DDOT": 0}, "tle": {"line1": "1 33762U 93036K   25358.24428605  .00000142  00000+0  60369-4 0  9990", "line2": "2 33762  74.0422 288.9936 0015474 347.7117 162.7185 14.33667231882125"}}, "geometry": {"type": "Point", "coordinates": [105.28384445681723, 8.419330357247444]}}, {"type": "Feature", "properties": {"norad_id": 33764, "name": "COSMOS 2251 DEB", "group": "cosmos-2251-debris", "lat": -27.007628970173926, "lon": 78.50922956134299, "alt_km": 748.7693256893081, "timestamp": "2025-12-24T22:42:22.426448+00:00", "meta": {"OBJECT_NAME": "COSMOS 2251 DEB", "OBJECT_ID": "1993-036M", "EPOCH": "2025-12-24T04:06:12.943296", "MEAN_MOTION": 14.39532612, "ECCENTRICITY": 0.00234211, "INCLINATION": 74.0331, "RA_OF_ASC_NODE": 251.549, "ARG_OF_PERICENTER": 215.0924, "MEAN_ANOMALY": 297.767, "EPHEMERIS_TYPE": 0, "CLASSIFICATION_TYPE": "U", "NORAD_CAT_ID": 33764, "ELEMENT_SET_NO": 999, "REV_AT_EPOCH": 88321, "BSTAR": 0.00028462878, "MEAN_MOTION_DOT": 8.64e-06, "MEAN_MOTION_DDOT": 0}, "tle": {"line1": "1 33764U 93036M   25358.17098314  .00000864  00000+0  28463-3 0  9993", "line2": "2 33764  74.0331 251.5490 0023421 215.0924 297.7670 14.39532612883210"}}, "geometry": {"type": "Point", "coordinates": [78.50922956134299, -27.007628970173926]}}, {"type": "Feature", "properties": {"norad_id": 33765, "name": "COSMOS 2251 DEB", "group": "cosmos-2251-debris", "lat": -73.39846052882335, "lon": 41.98175466944916, "alt_km": 501.4040401440052, "timestamp": "2025-12-24T22:42:22.426458+00:00", "meta": {"OBJECT_NAME": "COSMOS 2251 DEB", "OBJECT_ID": "1993-036N", "EPOCH": "2025-12-23T20:47:48.108192", "MEAN_MOTION": 15.10574288, "ECCENTRICITY": 0.0064887, "INCLINATION": 74.009, "RA_OF_ASC_NODE": 150.0883, "ARG_OF_PERICENTER": 240.4911, "MEAN_ANOMALY": 276.3386, "EPHEMERIS_TYPE": 0, "CLASSIFICATION_TYPE": "U", "NORAD_CAT_ID": 33765, "ELEMENT_SET_NO": 999, "REV_AT_EPOCH": 89786, "BSTAR": 0.0015907, "MEAN_MOTION_DOT": 0.00027676, "MEAN_MOTION_DDOT": 0}, "tle": {"line1": "1 33765U 93036N   25357.86652903  .00027676  00000+0  15907-2 0  9997", "line2": "2 33765  74.0090 150.0883 0064887 240.4911 276.3386 15.10574288897869"}}, "geometry": {"type": "Point", "coordinates": [41.98175466944916, -73.39846052882335]}}, {"type": "Feature", "properties": {"norad_id": 33766, "name": "COSMOS 2251 DEB", "group": "cosmos-2251-debris", "lat": 46.71673046713483, "lon": 130.3271833265921, "alt_km": 775.5782761153596, "timestamp": "2025-12-24T22:42:22.426469+00:00", "meta": {"OBJECT_NAME": "COSMOS 2251 DEB", "OBJECT_ID": "1993-036P", "EPOCH": "2025-12-24T07:25:12.565344", "MEAN_MOTION": 14.34966997, "ECCENTRICITY": 0.0064764, "INCLINATION": 74.186, "RA_OF_ASC_NODE": 113.9698, "ARG_OF_PERICENTER": 314.1797, "MEAN_ANOMALY": 45.4044, "EPHEMERIS_TYPE": 0, "CLASSIFICATION_TYPE": "U", "NORAD_CAT_ID": 33766, "ELEMENT_SET_NO": 999, "REV_AT_EPOCH": 87911, "BSTAR": 0.00051851134, "MEAN_MOTION_DOT": 1.486e-05, "MEAN_MOTION_DDOT": 0}, "tle": {"line1": "1 33766U 93036P   25358.30917321  .00001486  00000+0  51851-3 0  9996", "line2": "2 33766  74.1860 113.9698 0064764 314.1797  45.4044 14.34966997879114"}}, "geometry": {"type": "Point", "coordinates": [130.3271833265921, 46.71673046713483]}}, {"type": "Feature", "properties": {"norad_id": 33768, "name": "COSMOS 2251 DEB", "group": "cosmos-2251-debris", "lat": -33.90134195254839, "lon": 31.235824081463583, "alt_km": 1250.9539990677386, "timestamp": "2025-12-24T22:42:22.426481+00:00", "meta": {"OBJECT_NAME": "COSMOS 2251 DEB", "OBJECT_ID": "1993-036R", "EPOCH": "2025-12-24T01:11:01.106304", "MEAN_MOTION": 13.58464187, "ECCENTRICITY": 0.03668244, "INCLINATION": 74.0665, "RA_OF_ASC_NODE": 201.6153, "ARG_OF_PERICENTER": 356.8922, "MEAN_ANOMALY": 157.2299, "EPHEMERIS_TYPE": 0, "CLASSIFICATION_TYPE": "U", "NORAD_CAT_ID": 33768, "ELEMENT_SET_NO": 999, "REV_AT_EPOCH": 83449, "BSTAR": 0.00031715008, "MEAN_MOTION_DOT": 3.37e-06, "MEAN_MOTION_DDOT": 0}, "tle": {"line1": "1 33768U 93036R   25358.04931836  .00000337  00000+0  31715-3 0  9997", "line2": "2 33768  74.0665 201.6153 0366824 356.8922 157.2299 13.58464187834499"}}, "geometry": {"type": "Point", "coordinates": [31.235824081463583, -33.90134195254839]}}]}